CCSDS_OMM_VERS = 2.0
CREATION_DATE  = 
ORIGINATOR     = 

OBJECT_NAME    = DELTA 2 R/B(1)
OBJECT_ID      = 1990-008B
CENTER_NAME    = EARTH
REF_FRAME      = TEME
TIME_SYSTEM    = UTC
MEAN_ELEMENT_THEORY = SGP/SGP4

EPOCH          = 2026-02-05T07:25:58.718496
MEAN_MOTION    = 15.51488253
ECCENTRICITY   = .0096234
INCLINATION    = 35.6065
RA_OF_ASC_NODE = 26.6230
ARG_OF_PERICENTER = 316.9901
MEAN_ANOMALY   = 42.3342

EPHEMERIS_TYPE = 0
CLASSIFICATION_TYPE = U
NORAD_CAT_ID   = 20453
ELEMENT_SET_NO = 999
REV_AT_EPOCH   = 92109
BSTAR          = .11788E-2
MEAN_MOTION_DOT = .88442E-3
MEAN_MOTION_DDOT = 0

CCSDS_OMM_VERS = 2.0
CREATION_DATE  = 
ORIGINATOR     = 

OBJECT_NAME    = COSMOS 2058
OBJECT_ID      = 1990-010A
CENTER_NAME    = EARTH
REF_FRAME      = TEME
TIME_SYSTEM    = UTC
MEAN_ELEMENT_THEORY = SGP/SGP4

EPOCH          = 2026-02-05T01:40:40.373472
MEAN_MOTION    = 15.11018598
ECCENTRICITY   = .00121148
INCLINATION    = 82.4631
RA_OF_ASC_NODE = 79.5628
ARG_OF_PERICENTER = 87.9203
MEAN_ANOMALY   = 272.3414

EPHEMERIS_TYPE = 0
CLASSIFICATION_TYPE = U
NORAD_CAT_ID   = 20465
ELEMENT_SET_NO = 999
REV_AT_EPOCH   = 93731
BSTAR          = .29901264E-3
MEAN_MOTION_DOT = .5031E-4
MEAN_MOTION_DDOT = 0

CCSDS_OMM_VERS = 2.0
CREATION_DATE  = 
ORIGINATOR     = 

OBJECT_NAME    = SL-14 R/B
OBJECT_ID      = 1990-010B
CENTER_NAME    = EARTH
REF_FRAME      = TEME
TIME_SYSTEM    = UTC
MEAN_ELEMENT_THEORY = SGP/SGP4

EPOCH          = 2026-02-05T04:15:23.834016
MEAN_MOTION    = 14.83539886
ECCENTRICITY   = .0021051
INCLINATION    = 82.5034
RA_OF_ASC_NODE = 297.9283
ARG_OF_PERICENTER = 49.8961
MEAN_ANOMALY   = 310.4094

EPHEMERIS_TYPE = 0
CLASSIFICATION_TYPE = U
NORAD_CAT_ID   = 20466
ELEMENT_SET_NO = 999
REV_AT_EPOCH   = 92366
BSTAR          = .77787E-4
MEAN_MOTION_DOT = .666E-5
MEAN_MOTION_DDOT = 0

CCSDS_OMM_VERS = 2.0
CREATION_DATE  = 
ORIGINATOR     = 

OBJECT_NAME    = SL-14 R/B
OBJECT_ID      = 1990-018B
CENTER_NAME    = EARTH
REF_FRAME      = TEME
TIME_SYSTEM    = UTC
MEAN_ELEMENT_THEORY = SGP/SGP4

EPOCH          = 2026-02-05T07:10:17.492448
MEAN_MOTION    = 14.82111376
ECCENTRICITY   = .0015926
INCLINATION    = 82.5185
RA_OF_ASC_NODE = 253.3721
ARG_OF_PERICENTER = 193.8341
MEAN_ANOMALY   = 166.2439

EPHEMERIS_TYPE = 0
CLASSIFICATION_TYPE = U
NORAD_CAT_ID   = 20511
ELEMENT_SET_NO = 999
REV_AT_EPOCH   = 91778
BSTAR          = .63722E-4
MEAN_MOTION_DOT = .531E-5
MEAN_MOTION_DDOT = 0

CCSDS_OMM_VERS = 2.0
CREATION_DATE  = 
ORIGINATOR     = 

OBJECT_NAME    = HST
OBJECT_ID      = 1990-037B
CENTER_NAME    = EARTH
REF_FRAME      = TEME
TIME_SYSTEM    = UTC
MEAN_ELEMENT_THEORY = SGP/SGP4

EPOCH          = 2026-02-05T07:29:20.777856
MEAN_MOTION    = 15.28961568
ECCENTRICITY   = .0001932
INCLINATION    = 28.4665
RA_OF_ASC_NODE = 260.7880
ARG_OF_PERICENTER = 109.1408
MEAN_ANOMALY   = 250.9397

EPHEMERIS_TYPE = 0
CLASSIFICATION_TYPE = U
NORAD_CAT_ID   = 20580
ELEMENT_SET_NO = 999
REV_AT_EPOCH   = 76835
BSTAR          = .32359E-3
MEAN_MOTION_DOT = .9602E-4
MEAN_MOTION_DDOT = 0

CCSDS_OMM_VERS = 2.0
CREATION_DATE  = 
ORIGINATOR     = 

OBJECT_NAME    = SL-16 R/B
OBJECT_ID      = 1990-046B
CENTER_NAME    = EARTH
REF_FRAME      = TEME
TIME_SYSTEM    = UTC
MEAN_ELEMENT_THEORY = SGP/SGP4

EPOCH          = 2026-02-05T09:23:04.796736
MEAN_MOTION    = 14.15005088
ECCENTRICITY   = .0014543
INCLINATION    = 70.9997
RA_OF_ASC_NODE = 5.7434
ARG_OF_PERICENTER = 344.4772
MEAN_ANOMALY   = 15.5903

EPHEMERIS_TYPE = 0
CLASSIFICATION_TYPE = U
NORAD_CAT_ID   = 20625
ELEMENT_SET_NO = 999
REV_AT_EPOCH   = 84382
BSTAR          = .38969E-4
MEAN_MOTION_DOT = .28E-6
MEAN_MOTION_DDOT = 0

CCSDS_OMM_VERS = 2.0
CREATION_DATE  = 
ORIGINATOR     = 

OBJECT_NAME    = COSMOS 2084
OBJECT_ID      = 1990-055A
CENTER_NAME    = EARTH
REF_FRAME      = TEME
TIME_SYSTEM    = UTC
MEAN_ELEMENT_THEORY = SGP/SGP4

EPOCH          = 2026-02-05T12:12:23.771808
MEAN_MOTION    = 15.05442280
ECCENTRICITY   = .0022193
INCLINATION    = 62.7897
RA_OF_ASC_NODE = 85.3195
ARG_OF_PERICENTER = 183.2924
MEAN_ANOMALY   = 176.8034

EPHEMERIS_TYPE = 0
CLASSIFICATION_TYPE = U
NORAD_CAT_ID   = 20663
ELEMENT_SET_NO = 999
REV_AT_EPOCH   = 93147
BSTAR          = .27384E-3
MEAN_MOTION_DOT = .377E-4
MEAN_MOTION_DDOT = 0

CCSDS_OMM_VERS = 2.0
CREATION_DATE  = 
ORIGINATOR     = 

OBJECT_NAME    = SL-6 R/B(2)
OBJECT_ID      = 1990-055D
CENTER_NAME    = EARTH
REF_FRAME      = TEME
TIME_SYSTEM    = UTC
MEAN_ELEMENT_THEORY = SGP/SGP4

EPOCH          = 2026-02-05T07:33:13.391712
MEAN_MOTION    = 15.03418145
ECCENTRICITY   = .0019951
INCLINATION    = 62.7851
RA_OF_ASC_NODE = 3.9306
ARG_OF_PERICENTER = 337.5810
MEAN_ANOMALY   = 22.4416

EPHEMERIS_TYPE = 0
CLASSIFICATION_TYPE = U
NORAD_CAT_ID   = 20666
ELEMENT_SET_NO = 999
REV_AT_EPOCH   = 93332
BSTAR          = .31756E-3
MEAN_MOTION_DOT = .4162E-4
MEAN_MOTION_DDOT = 0

CCSDS_OMM_VERS = 2.0
CREATION_DATE  = 
ORIGINATOR     = 

OBJECT_NAME    = SL-8 R/B
OBJECT_ID      = 1990-078B
CENTER_NAME    = EARTH
REF_FRAME      = TEME
TIME_SYSTEM    = UTC
MEAN_ELEMENT_THEORY = SGP/SGP4

EPOCH          = 2026-02-05T02:33:55.387584
MEAN_MOTION    = 14.87975298
ECCENTRICITY   = .03673367
INCLINATION    = 82.9026
RA_OF_ASC_NODE = 280.5873
ARG_OF_PERICENTER = 123.1606
MEAN_ANOMALY   = 240.5423

EPHEMERIS_TYPE = 0
CLASSIFICATION_TYPE = U
NORAD_CAT_ID   = 20775
ELEMENT_SET_NO = 999
REV_AT_EPOCH   = 80445
BSTAR          = .55696517E-3
MEAN_MOTION_DOT = .18839E-3
MEAN_MOTION_DDOT = 0

CCSDS_OMM_VERS = 2.0
CREATION_DATE  = 
ORIGINATOR     = 

OBJECT_NAME    = SL-8 R/B
OBJECT_ID      = 1991-006B
CENTER_NAME    = EARTH
REF_FRAME      = TEME
TIME_SYSTEM    = UTC
MEAN_ELEMENT_THEORY = SGP/SGP4

EPOCH          = 2026-02-05T12:27:41.784768
MEAN_MOTION    = 13.77491884
ECCENTRICITY   = .0023531
INCLINATION    = 82.9426
RA_OF_ASC_NODE = 193.9640
ARG_OF_PERICENTER = 123.8706
MEAN_ANOMALY   = 298.8502

EPHEMERIS_TYPE = 0
CLASSIFICATION_TYPE = U
NORAD_CAT_ID   = 21088
ELEMENT_SET_NO = 999
REV_AT_EPOCH   = 75964
BSTAR          = -.15021E-4
MEAN_MOTION_DOT = .1E-7
MEAN_MOTION_DDOT = 0

CCSDS_OMM_VERS = 2.0
CREATION_DATE  = 
ORIGINATOR     = 

OBJECT_NAME    = OKEAN-3
OBJECT_ID      = 1991-039A
CENTER_NAME    = EARTH
REF_FRAME      = TEME
TIME_SYSTEM    = UTC
MEAN_ELEMENT_THEORY = SGP/SGP4

EPOCH          = 2026-02-05T08:37:30.900288
MEAN_MOTION    = 15.04546571
ECCENTRICITY   = .0016392
INCLINATION    = 82.5182
RA_OF_ASC_NODE = 8.1545
ARG_OF_PERICENTER = 82.4528
MEAN_ANOMALY   = 277.8560

EPHEMERIS_TYPE = 0
CLASSIFICATION_TYPE = U
NORAD_CAT_ID   = 21397
ELEMENT_SET_NO = 999
REV_AT_EPOCH   = 86017
BSTAR          = .34846E-3
MEAN_MOTION_DOT = .4925E-4
MEAN_MOTION_DDOT = 0

CCSDS_OMM_VERS = 2.0
CREATION_DATE  = 
ORIGINATOR     = 

OBJECT_NAME    = COSMOS 2151
OBJECT_ID      = 1991-042A
CENTER_NAME    = EARTH
REF_FRAME      = TEME
TIME_SYSTEM    = UTC
MEAN_ELEMENT_THEORY = SGP/SGP4

EPOCH          = 2026-02-05T11:08:11.172480
MEAN_MOTION    = 14.99979202
ECCENTRICITY   = .0013064
INCLINATION    = 82.4967
RA_OF_ASC_NODE = 114.7609
ARG_OF_PERICENTER = 162.0220
MEAN_ANOMALY   = 198.1469

EPHEMERIS_TYPE = 0
CLASSIFICATION_TYPE = U
NORAD_CAT_ID   = 21422
ELEMENT_SET_NO = 999
REV_AT_EPOCH   = 85836
BSTAR          = .20646E-3
MEAN_MOTION_DOT = .2596E-4
MEAN_MOTION_DDOT = 0

