DELTA 2 R/B(1)          
1 20453U 90008B   26036.30970739  .00088442  00000+0  11788-2 0  9998
2 20453  35.6065  26.6230 0096234 316.9901  42.3342 15.51488253921094
COSMOS 2058             
1 20465U 90010A   26036.06991173  .00005031  00000+0  29901-3 0  9992
2 20465  82.4631  79.5628 0012114  87.9203 272.3414 15.11018598937313
SL-14 R/B               
1 20466U 90010B   26036.17735919  .00000666  00000+0  77787-4 0  9994
2 20466  82.5034 297.9283 0021051  49.8961 310.4094 14.83539886923660
SL-14 R/B               
1 20511U 90018B   26036.29881357  .00000531  00000+0  63722-4 0  9999
2 20511  82.5185 253.3721 0015926 193.8341 166.2439 14.82111376917782
HST                     
1 20580U 90037B   26036.31204604  .00009602  00000+0  32359-3 0  9992
2 20580  28.4665 260.7880 0001932 109.1408 250.9397 15.28961568768352
SL-16 R/B               
1 20625U 90046B   26036.39102774  .00000028  00000+0  38969-4 0  9992
2 20625  70.9997   5.7434 0014543 344.4772  15.5903 14.15005088843829
COSMOS 2084             
1 20663U 90055A   26036.50860847  .00003770  00000+0  27384-3 0  9994
2 20663  62.7897  85.3195 0022193 183.2924 176.8034 15.05442280931479
SL-6 R/B(2)             
1 20666U 90055D   26036.31473833  .00004162  00000+0  31756-3 0  9995
2 20666  62.7851   3.9306 0019951 337.5810  22.4416 15.03418145933325
SL-8 R/B                
1 20775U 90078B   26036.10689106  .00018839  00000+0  55697-3 0  9996
2 20775  82.9026 280.5873 0367336 123.1606 240.5423 14.87975298804451
SL-8 R/B                
1 21088U 91006B   26036.51923362  .00000001  00000+0 -15021-4 0  9997
2 21088  82.9426 193.9640 0023531 123.8706 298.8502 13.77491884759642
OKEAN-3                 
1 21397U 91039A   26036.35938542  .00004925  00000+0  34846-3 0  9997
2 21397  82.5182   8.1545 0016392  82.4528 277.8560 15.04546571860178
COSMOS 2151             
1 21422U 91042A   26036.46401820  .00002596  00000+0  20646-3 0  9991
2 21422  82.4967 114.7609 0013064 162.0220 198.1469 14.99979202858364
